[{"OBJECT_NAME":"OBJECT A","OBJECT_ID":"2023-189A","EPOCH":"2026-03-09T22:59:06.381600","MEAN_MOTION":15.32403275,"ECCENTRICITY":0.00094831,"INCLINATION":97.4458,"RA_OF_ASC_NODE":86.5997,"ARG_OF_PERICENTER":249.5377,"MEAN_ANOMALY":110.4847,"EPHEMERIS_TYPE":0,"CLASSIFICATION_TYPE":"U","NORAD_CAT_ID":58502,"ELEMENT_SET_NO":999,"REV_AT_EPOCH":12601,"BSTAR":0.00019874471,"MEAN_MOTION_DOT":6.146e-5,"MEAN_MOTION_DDOT":0},{"OBJECT_NAME":"STARLINK-34130","OBJECT_ID":"2025-144N","EPOCH":"2026-03-09T15:12:29.053440","MEAN_MOTION":15.30200611,"ECCENTRICITY":8.66e-5,"INCLINATION":53.1599,"RA_OF_ASC_NODE":181.2756,"ARG_OF_PERICENTER":65.2672,"MEAN_ANOMALY":294.8419,"EPHEMERIS_TYPE":0,"CLASSIFICATION_TYPE":"U","NORAD_CAT_ID":64736,"ELEMENT_SET_NO":999,"REV_AT_EPOCH":3970,"BSTAR":0.0011817,"MEAN_MOTION_DOT":0.00034804,"MEAN_MOTION_DDOT":0}]
